[{"OBJECT_NAME":"STARLINK-35582","OBJECT_ID":"2025-265X","EPOCH":"2026-03-09T13:29:26.996928","MEAN_MOTION":15.27598737,"ECCENTRICITY":0.00036595,"INCLINATION":43.0013,"RA_OF_ASC_NODE":278.6784,"ARG_OF_PERICENTER":295.6523,"MEAN_ANOMALY":64.3951,"EPHEMERIS_TYPE":0,"CLASSIFICATION_TYPE":"U","NORAD_CAT_ID":66537,"ELEMENT_SET_NO":999,"REV_AT_EPOCH":1709,"BSTAR":0.0010915223,"MEAN_MOTION_DOT":0.00029917,"MEAN_MOTION_DDOT":0},{"OBJECT_NAME":"COSMOS 1758","OBJECT_ID":"1986-046A","EPOCH":"2026-03-09T22:23:33.220896","MEAN_MOTION":15.25706639,"ECCENTRICITY":0.00131526,"INCLINATION":82.4607,"RA_OF_ASC_NODE":143.3203,"ARG_OF_PERICENTER":337.3781,"MEAN_ANOMALY":22.6875,"EPHEMERIS_TYPE":0,"CLASSIFICATION_TYPE":"U","NORAD_CAT_ID":16791,"ELEMENT_SET_NO":999,"REV_AT_EPOCH":16610,"BSTAR":0.00027304427,"MEAN_MOTION_DOT":7.006e-5,"MEAN_MOTION_DDOT":0}]
